{
  "norad_id": 51146,
  "name": "STARLINK-3354",
  "history": [
    {
      "epoch": "2026-03-28T15:48:11.408832Z",
      "apogee_km": 540.6594645339474,
      "perigee_km": 538.8244279646651,
      "latitude_deg": 7.954492874132602e-06,
      "longitude_deg": 150.8512201882243,
      "height_km": 540.5908092801249,
      "semi_major_axis_km": 6917.878946249306,
      "eccentricity": 0.00013263,
      "inclination_deg": 53.2172,
      "raan_deg": 213.9745,
      "arg_perigee_deg": 87.0718,
      "mean_anomaly_deg": 273.0426,
      "mean_motion_rev_day": 15.08840472
    },
    {
      "epoch": "2026-03-29T01:20:30.240384Z",
      "apogee_km": 540.6496440901583,
      "perigee_km": 538.8316258476898,
      "latitude_deg": 2.5662348811470822e-05,
      "longitude_deg": 5.597033532779836,
      "height_km": 540.6220957943887,
      "semi_major_axis_km": 6917.877634968924,
      "eccentricity": 0.0001314,
      "inclination_deg": 53.2173,
      "raan_deg": 212.1905,
      "arg_perigee_deg": 89.0989,
      "mean_anomaly_deg": 271.0154,
      "mean_motion_rev_day": 15.08840901
    },
    {
      "epoch": "2026-03-30T01:11:17.528352Z",
      "apogee_km": 540.6835373248596,
      "perigee_km": 538.8184747184359,
      "latitude_deg": -6.09766716017892e-05,
      "longitude_deg": 2.459296771627491,
      "height_km": 540.5518569213978,
      "semi_major_axis_km": 6917.888006021647,
      "eccentricity": 0.0001348,
      "inclination_deg": 53.2159,
      "raan_deg": 207.7292,
      "arg_perigee_deg": 84.1695,
      "mean_anomaly_deg": 275.945,
      "mean_motion_rev_day": 15.08837508
    },
    {
      "epoch": "2026-03-30T01:11:17.529216Z",
      "apogee_km": 540.6832606093385,
      "perigee_km": 538.8187514339561,
      "latitude_deg": -5.730282586212855e-05,
      "longitude_deg": 2.459295893504383,
      "height_km": 540.5518850309687,
      "semi_major_axis_km": 6917.888006021647,
      "eccentricity": 0.00013476,
      "inclination_deg": 53.2159,
      "raan_deg": 207.7292,
      "arg_perigee_deg": 84.1695,
      "mean_anomaly_deg": 275.945,
      "mean_motion_rev_day": 15.08837508
    },
    {
      "epoch": "2026-03-30T13:54:22.617216Z",
      "apogee_km": 540.5885651271674,
      "perigee_km": 538.9162345436516,
      "latitude_deg": -1.366137640266597e-05,
      "longitude_deg": 168.7885159704095,
      "height_km": 540.5813878553943,
      "semi_major_axis_km": 6917.88939983541,
      "eccentricity": 0.00012087,
      "inclination_deg": 53.2169,
      "raan_deg": 205.3519,
      "arg_perigee_deg": 85.4123,
      "mean_anomaly_deg": 274.7007,
      "mean_motion_rev_day": 15.08837052
    },
    {
      "epoch": "2026-03-30T17:05:08.595456Z",
      "apogee_km": 540.6582921154632,
      "perigee_km": 538.8200740560942,
      "latitude_deg": 4.763128666213535e-06,
      "longitude_deg": 120.37117892755292,
      "height_km": 540.5678460398426,
      "semi_major_axis_km": 6917.876183085778,
      "eccentricity": 0.00013286,
      "inclination_deg": 53.2162,
      "raan_deg": 204.7567,
      "arg_perigee_deg": 85.8218,
      "mean_anomaly_deg": 274.2926,
      "mean_motion_rev_day": 15.08841376
    },
    {
      "epoch": "2026-03-31T13:45:09.194112Z",
      "apogee_km": 540.6455495286309,
      "perigee_km": 538.8247655767636,
      "latitude_deg": -3.5895874323643895e-05,
      "longitude_deg": 165.65419876122684,
      "height_km": 540.5611596063795,
      "semi_major_axis_km": 6917.872157552697,
      "eccentricity": 0.0001316,
      "inclination_deg": 53.215,
      "raan_deg": 200.891,
      "arg_perigee_deg": 85.6203,
      "mean_anomaly_deg": 274.4939,
      "mean_motion_rev_day": 15.08842693
    },
    {
      "epoch": "2026-04-01T13:35:55.828896Z",
      "apogee_km": 540.5005790279729,
      "perigee_km": 538.9578948571334,
      "latitude_deg": 9.88128730291688e-06,
      "longitude_deg": 162.51939027228983,
      "height_km": 540.620342070555,
      "semi_major_axis_km": 6917.866236942553,
      "eccentricity": 0.0001115,
      "inclination_deg": 53.2157,
      "raan_deg": 196.4298,
      "arg_perigee_deg": 89.6467,
      "mean_anomaly_deg": 270.4653,
      "mean_motion_rev_day": 15.0884463
    },
    {
      "epoch": "2026-04-02T13:26:43.582560Z",
      "apogee_km": 540.4771858505428,
      "perigee_km": 539.0285797090883,
      "latitude_deg": -1.5787868492305213e-05,
      "longitude_deg": 159.38245352090593,
      "height_km": 540.5218810102815,
      "semi_major_axis_km": 6917.889882779815,
      "eccentricity": 0.0001047,
      "inclination_deg": 53.2158,
      "raan_deg": 191.9712,
      "arg_perigee_deg": 79.9023,
      "mean_anomaly_deg": 280.2087,
      "mean_motion_rev_day": 15.08836894
    },
    {
      "epoch": "2026-04-02T22:59:02.332032Z",
      "apogee_km": 540.4443722812784,
      "perigee_km": 539.0469599827202,
      "latitude_deg": 6.293604591664251e-05,
      "longitude_deg": 14.128755552455223,
      "height_km": 540.4944148343079,
      "semi_major_axis_km": 6917.882666131999,
      "eccentricity": 0.000101,
      "inclination_deg": 53.2168,
      "raan_deg": 190.1873,
      "arg_perigee_deg": 77.8218,
      "mean_anomaly_deg": 282.2888,
      "mean_motion_rev_day": 15.08839255
    },
    {
      "epoch": "2026-04-03T13:17:30.018624Z",
      "apogee_km": 540.5468761598859,
      "perigee_km": 538.8755240347427,
      "latitude_deg": -2.4161012112274313e-05,
      "longitude_deg": 156.24843400209608,
      "height_km": 540.5572823998527,
      "semi_major_axis_km": 6917.8482000973145,
      "eccentricity": 0.0001208,
      "inclination_deg": 53.2171,
      "raan_deg": 187.51,
      "arg_perigee_deg": 86.5827,
      "mean_anomaly_deg": 273.5303,
      "mean_motion_rev_day": 15.08850531
    },
    {
      "epoch": "2026-04-05T14:34:29.157024Z",
      "apogee_km": 540.5796902641896,
      "perigee_km": 538.9581331184881,
      "latitude_deg": -8.928050524840996e-06,
      "longitude_deg": 125.75874850497851,
      "height_km": 540.7206641548839,
      "semi_major_axis_km": 6917.905911691339,
      "eccentricity": 0.0001172,
      "inclination_deg": 53.2164,
      "raan_deg": 178.2907,
      "arg_perigee_deg": 93.953,
      "mean_anomaly_deg": 266.1596,
      "mean_motion_rev_day": 15.0883165
    },
    {
      "epoch": "2026-04-06T04:52:57.125280Z",
      "apogee_km": 540.5435728129069,
      "perigee_km": 538.975562376896,
      "latitude_deg": 1.861126767997903e-06,
      "longitude_deg": -92.12157827268626,
      "height_km": 540.6657402369835,
      "semi_major_axis_km": 6917.896567594901,
      "eccentricity": 0.00011333,
      "inclination_deg": 53.2166,
      "raan_deg": 175.6145,
      "arg_perigee_deg": 90.7486,
      "mean_anomaly_deg": 269.3636,
      "mean_motion_rev_day": 15.08834707
    },
    {
      "epoch": "2026-04-07T11:05:16.430208Z",
      "apogee_km": 540.5001888325069,
      "perigee_km": 538.9916752803429,
      "latitude_deg": -3.982396096098019e-06,
      "longitude_deg": 167.9079866930276,
      "height_km": 540.6444660538172,
      "semi_major_axis_km": 6917.882932056425,
      "eccentricity": 0.00010903,
      "inclination_deg": 53.2158,
      "raan_deg": 169.965,
      "arg_perigee_deg": 90.1997,
      "mean_anomaly_deg": 269.912,
      "mean_motion_rev_day": 15.08839168
    },
    {
      "epoch": "2026-04-08T14:06:49.872672Z",
      "apogee_km": 540.5028510396014,
      "perigee_km": 538.9774591269052,
      "latitude_deg": -2.7352651895945802e-05,
      "longitude_deg": 116.35390573897229,
      "height_km": 540.604840199356,
      "semi_major_axis_km": 6917.877155083253,
      "eccentricity": 0.00011025,
      "inclination_deg": 53.2162,
      "raan_deg": 164.9102,
      "arg_perigee_deg": 87.6516,
      "mean_anomaly_deg": 272.4602,
      "mean_motion_rev_day": 15.08841058
    }
  ]
}